SL-14 R/B               
1 16792U 86046B   26075.27339910  .00000503  00000+0  55099-4 0  9992
2 16792  82.4784  73.9588 0022444 202.7158 157.3068 14.85597148127384
SL-14 R/B               
1 16882U 86055B   26075.20196444  .00000442  00000+0  48179-4 0  9991
2 16882  82.5188 120.5525 0017696 313.9840 110.4510 14.85648698120336
AJISAI (EGS)            
1 16908U 86061A   26075.31470616 -.00000086  00000+0  80044-4 0  9997
2 16908  50.0085  72.9747 0011288 304.0996 188.1939 12.44515707468824
SL-14 R/B               
1 17567U 87024B   26075.10240684  .00000494  00000+0  53490-4 0  9993
2 17567  82.5243  86.7345 0016884 236.8486 123.1111 14.86138504 89084
COSMOS 1833             
1 17589U 87027A   26075.08976888 -.00000204  00000+0 -83311-4 0  9995
2 17589  70.9208 312.5680 0023941 205.4260 154.5685 14.13052938 11227
SL-16 R/B               
1 17590U 87027B   26074.90371860  .00000012  00000+0  29571-4 0  9999
2 17590  70.9992 263.3992 0003156 128.5720 231.5687 14.17166689 16226
SL-14 R/B               
1 17912U 87038B   26075.10067934  .00000445  00000+0  48723-4 0  9996
2 17912  82.4991 290.7674 0020190 140.0188 220.2519 14.85375245 80186
COSMOS 1844             
1 17973U 87041A   26075.18886031 -.00000076  00000+0 -14235-4 0  9995
2 17973  70.9006  20.4670 0030352   8.3418 351.8202 14.14551143  4506
SL-14 R/B               
1 18153U 87055B   26075.21115425  .00000510  00000+0  55953-4 0  9990
2 18153  82.5028 342.8867 0020553 356.5723   3.5349 14.85637122 70908
COSMOS 1867             
1 18187U 87060A   26074.93839337 -.00000011  00000+0  33601-4 0  9999
2 18187  65.0101 289.2058 0014586 279.0350  80.9084 14.31503965 20833
SL-14 R/B               
1 18749U 88001B   26074.80278759  .00000512  00000+0  56340-4 0  9990
2 18749  82.5159 189.6120 0017230 214.2450 145.7656 14.85535327 42934
COSMOS 1933             
1 18958U 88020A   26075.18409804  .00004198  00000+0  20473-3 0  9993
2 18958  82.5103 244.4847 0004388 161.1186 199.0211 15.18050278 51211
