CCSDS_OMM_VERS = 2.0
CREATION_DATE  = 
ORIGINATOR     = 

OBJECT_NAME    = SL-14 R/B
OBJECT_ID      = 1986-046B
CENTER_NAME    = EARTH
REF_FRAME      = TEME
TIME_SYSTEM    = UTC
MEAN_ELEMENT_THEORY = SGP/SGP4

EPOCH          = 2026-03-16T06:33:41.682240
MEAN_MOTION    = 14.85597148
ECCENTRICITY   = .00224443
INCLINATION    = 82.4784
RA_OF_ASC_NODE = 73.9588
ARG_OF_PERICENTER = 202.7158
MEAN_ANOMALY   = 157.3068

EPHEMERIS_TYPE = 0
CLASSIFICATION_TYPE = U
NORAD_CAT_ID   = 16792
ELEMENT_SET_NO = 999
REV_AT_EPOCH   = 12738
BSTAR          = .55099239E-4
MEAN_MOTION_DOT = .503E-5
MEAN_MOTION_DDOT = 0

CCSDS_OMM_VERS = 2.0
CREATION_DATE  = 
ORIGINATOR     = 

OBJECT_NAME    = SL-14 R/B
OBJECT_ID      = 1986-055B
CENTER_NAME    = EARTH
REF_FRAME      = TEME
TIME_SYSTEM    = UTC
MEAN_ELEMENT_THEORY = SGP/SGP4

EPOCH          = 2026-03-16T04:50:49.727616
MEAN_MOTION    = 14.85648698
ECCENTRICITY   = .00176963
INCLINATION    = 82.5188
RA_OF_ASC_NODE = 120.5525
ARG_OF_PERICENTER = 313.9840
MEAN_ANOMALY   = 110.4510

EPHEMERIS_TYPE = 0
CLASSIFICATION_TYPE = U
NORAD_CAT_ID   = 16882
ELEMENT_SET_NO = 999
REV_AT_EPOCH   = 12033
BSTAR          = .48178884E-4
MEAN_MOTION_DOT = .442E-5
MEAN_MOTION_DDOT = 0

CCSDS_OMM_VERS = 2.0
CREATION_DATE  = 
ORIGINATOR     = 

OBJECT_NAME    = AJISAI (EGS)
OBJECT_ID      = 1986-061A
CENTER_NAME    = EARTH
REF_FRAME      = TEME
TIME_SYSTEM    = UTC
MEAN_ELEMENT_THEORY = SGP/SGP4

EPOCH          = 2026-03-16T07:33:10.612224
MEAN_MOTION    = 12.44515707
ECCENTRICITY   = .00112881
INCLINATION    = 50.0085
RA_OF_ASC_NODE = 72.9747
ARG_OF_PERICENTER = 304.0996
MEAN_ANOMALY   = 188.1939

EPHEMERIS_TYPE = 0
CLASSIFICATION_TYPE = U
NORAD_CAT_ID   = 16908
ELEMENT_SET_NO = 999
REV_AT_EPOCH   = 46882
BSTAR          = .80044166E-4
MEAN_MOTION_DOT = -.86E-6
MEAN_MOTION_DDOT = 0

CCSDS_OMM_VERS = 2.0
CREATION_DATE  = 
ORIGINATOR     = 

OBJECT_NAME    = SL-14 R/B
OBJECT_ID      = 1987-024B
CENTER_NAME    = EARTH
REF_FRAME      = TEME
TIME_SYSTEM    = UTC
MEAN_ELEMENT_THEORY = SGP/SGP4

EPOCH          = 2026-03-16T02:27:27.950976
MEAN_MOTION    = 14.86138504
ECCENTRICITY   = .00168844
INCLINATION    = 82.5243
RA_OF_ASC_NODE = 86.7345
ARG_OF_PERICENTER = 236.8486
MEAN_ANOMALY   = 123.1111

EPHEMERIS_TYPE = 0
CLASSIFICATION_TYPE = U
NORAD_CAT_ID   = 17567
ELEMENT_SET_NO = 999
REV_AT_EPOCH   = 8908
BSTAR          = .53489665E-4
MEAN_MOTION_DOT = .494E-5
MEAN_MOTION_DDOT = 0

CCSDS_OMM_VERS = 2.0
CREATION_DATE  = 
ORIGINATOR     = 

OBJECT_NAME    = COSMOS 1833
OBJECT_ID      = 1987-027A
CENTER_NAME    = EARTH
REF_FRAME      = TEME
TIME_SYSTEM    = UTC
MEAN_ELEMENT_THEORY = SGP/SGP4

EPOCH          = 2026-03-16T02:09:16.031232
MEAN_MOTION    = 14.13052938
ECCENTRICITY   = .00239411
INCLINATION    = 70.9208
RA_OF_ASC_NODE = 312.5680
ARG_OF_PERICENTER = 205.4260
MEAN_ANOMALY   = 154.5685

EPHEMERIS_TYPE = 0
CLASSIFICATION_TYPE = U
NORAD_CAT_ID   = 17589
ELEMENT_SET_NO = 999
REV_AT_EPOCH   = 1122
BSTAR          = -.83310867E-4
MEAN_MOTION_DOT = -.204E-5
MEAN_MOTION_DDOT = 0

CCSDS_OMM_VERS = 2.0
CREATION_DATE  = 
ORIGINATOR     = 

OBJECT_NAME    = SL-16 R/B
OBJECT_ID      = 1987-027B
CENTER_NAME    = EARTH
REF_FRAME      = TEME
TIME_SYSTEM    = UTC
MEAN_ELEMENT_THEORY = SGP/SGP4

EPOCH          = 2026-03-15T21:41:21.287040
MEAN_MOTION    = 14.17166689
ECCENTRICITY   = .00031562
INCLINATION    = 70.9992
RA_OF_ASC_NODE = 263.3992
ARG_OF_PERICENTER = 128.5720
MEAN_ANOMALY   = 231.5687

EPHEMERIS_TYPE = 0
CLASSIFICATION_TYPE = U
NORAD_CAT_ID   = 17590
ELEMENT_SET_NO = 999
REV_AT_EPOCH   = 1622
BSTAR          = .29571432E-4
MEAN_MOTION_DOT = .12E-6
MEAN_MOTION_DDOT = 0

CCSDS_OMM_VERS = 2.0
CREATION_DATE  = 
ORIGINATOR     = 

OBJECT_NAME    = SL-14 R/B
OBJECT_ID      = 1987-038B
CENTER_NAME    = EARTH
REF_FRAME      = TEME
TIME_SYSTEM    = UTC
MEAN_ELEMENT_THEORY = SGP/SGP4

EPOCH          = 2026-03-16T02:24:58.694976
MEAN_MOTION    = 14.85375245
ECCENTRICITY   = .00201907
INCLINATION    = 82.4991
RA_OF_ASC_NODE = 290.7674
ARG_OF_PERICENTER = 140.0188
MEAN_ANOMALY   = 220.2519

EPHEMERIS_TYPE = 0
CLASSIFICATION_TYPE = U
NORAD_CAT_ID   = 17912
ELEMENT_SET_NO = 999
REV_AT_EPOCH   = 8018
BSTAR          = .48722664E-4
MEAN_MOTION_DOT = .445E-5
MEAN_MOTION_DDOT = 0

CCSDS_OMM_VERS = 2.0
CREATION_DATE  = 
ORIGINATOR     = 

OBJECT_NAME    = COSMOS 1844
OBJECT_ID      = 1987-041A
CENTER_NAME    = EARTH
REF_FRAME      = TEME
TIME_SYSTEM    = UTC
MEAN_ELEMENT_THEORY = SGP/SGP4

EPOCH          = 2026-03-16T04:31:57.530784
MEAN_MOTION    = 14.14551143
ECCENTRICITY   = .00303529
INCLINATION    = 70.9006
RA_OF_ASC_NODE = 20.4670
ARG_OF_PERICENTER = 8.3418
MEAN_ANOMALY   = 351.8202

EPHEMERIS_TYPE = 0
CLASSIFICATION_TYPE = U
NORAD_CAT_ID   = 17973
ELEMENT_SET_NO = 999
REV_AT_EPOCH   = 450
BSTAR          = -.14235182E-4
MEAN_MOTION_DOT = -.76E-6
MEAN_MOTION_DDOT = 0

CCSDS_OMM_VERS = 2.0
CREATION_DATE  = 
ORIGINATOR     = 

OBJECT_NAME    = SL-14 R/B
OBJECT_ID      = 1987-055B
CENTER_NAME    = EARTH
REF_FRAME      = TEME
TIME_SYSTEM    = UTC
MEAN_ELEMENT_THEORY = SGP/SGP4

EPOCH          = 2026-03-16T05:04:03.727200
MEAN_MOTION    = 14.85637122
ECCENTRICITY   = .00205538
INCLINATION    = 82.5028
RA_OF_ASC_NODE = 342.8867
ARG_OF_PERICENTER = 356.5723
MEAN_ANOMALY   = 3.5349

EPHEMERIS_TYPE = 0
CLASSIFICATION_TYPE = U
NORAD_CAT_ID   = 18153
ELEMENT_SET_NO = 999
REV_AT_EPOCH   = 7090
BSTAR          = .55952533E-4
MEAN_MOTION_DOT = .51E-5
MEAN_MOTION_DDOT = 0

CCSDS_OMM_VERS = 2.0
CREATION_DATE  = 
ORIGINATOR     = 

OBJECT_NAME    = COSMOS 1867
OBJECT_ID      = 1987-060A
CENTER_NAME    = EARTH
REF_FRAME      = TEME
TIME_SYSTEM    = UTC
MEAN_ELEMENT_THEORY = SGP/SGP4

EPOCH          = 2026-03-15T22:31:17.187168
MEAN_MOTION    = 14.31503965
ECCENTRICITY   = .00145868
INCLINATION    = 65.0101
RA_OF_ASC_NODE = 289.2058
ARG_OF_PERICENTER = 279.0350
MEAN_ANOMALY   = 80.9084

EPHEMERIS_TYPE = 0
CLASSIFICATION_TYPE = U
NORAD_CAT_ID   = 18187
ELEMENT_SET_NO = 999
REV_AT_EPOCH   = 2083
BSTAR          = .33601204E-4
MEAN_MOTION_DOT = -.11E-6
MEAN_MOTION_DDOT = 0

CCSDS_OMM_VERS = 2.0
CREATION_DATE  = 
ORIGINATOR     = 

OBJECT_NAME    = SL-14 R/B
OBJECT_ID      = 1988-001B
CENTER_NAME    = EARTH
REF_FRAME      = TEME
TIME_SYSTEM    = UTC
MEAN_ELEMENT_THEORY = SGP/SGP4

EPOCH          = 2026-03-15T19:16:00.847776
MEAN_MOTION    = 14.85535327
ECCENTRICITY   = .00172307
INCLINATION    = 82.5159
RA_OF_ASC_NODE = 189.6120
ARG_OF_PERICENTER = 214.2450
MEAN_ANOMALY   = 145.7656

EPHEMERIS_TYPE = 0
CLASSIFICATION_TYPE = U
NORAD_CAT_ID   = 18749
ELEMENT_SET_NO = 999
REV_AT_EPOCH   = 4293
BSTAR          = .5633964E-4
MEAN_MOTION_DOT = .512E-5
MEAN_MOTION_DDOT = 0

CCSDS_OMM_VERS = 2.0
CREATION_DATE  = 
ORIGINATOR     = 

OBJECT_NAME    = COSMOS 1933
OBJECT_ID      = 1988-020A
CENTER_NAME    = EARTH
REF_FRAME      = TEME
TIME_SYSTEM    = UTC
MEAN_ELEMENT_THEORY = SGP/SGP4

EPOCH          = 2026-03-16T04:25:06.070656
MEAN_MOTION    = 15.18050278
ECCENTRICITY   = .00043887
INCLINATION    = 82.5103
RA_OF_ASC_NODE = 244.4847
ARG_OF_PERICENTER = 161.1186
MEAN_ANOMALY   = 199.0211

EPHEMERIS_TYPE = 0
CLASSIFICATION_TYPE = U
NORAD_CAT_ID   = 18958
ELEMENT_SET_NO = 999
REV_AT_EPOCH   = 5121
BSTAR          = .20473365E-3
MEAN_MOTION_DOT = .4198E-4
MEAN_MOTION_DDOT = 0

